0 FENGYUN 1C DEB
1 31618U 99025BZY 13283.67549297  .00000530  00000-0  23726-3 0  3681
2 31618 099.4796 086.2600 0167184 202.1638 157.2728 14.15450380331589
0 FENGYUN 1C DEB
1 31618U 99025BZY 13283.67551531  .00000344  00000-0  17615-3 0  3688
2 31618 099.4797 086.2499 0167601 202.8970 156.5740 14.15446044331584
0 FENGYUN 1C DEB
1 31618U 99025BZY 13289.25992585  .00000395  00000-0  19860-3 0  3697
2 31618 099.4912 092.2215 0168687 183.5274 176.5767 14.15452882332379
0 FENGYUN 1C DEB
1 31618U 99025BZY 13290.67365010  .00000811  00000-0  36174-3 0  3704
2 31618 099.4796 093.7003 0169355 182.4116 177.6728 14.15464418332575
0 FENGYUN 1C DEB
1 31618U 99025BZY 13292.22882667  .00000442  00000-0  21908-3 0  3708
2 31618 099.4901 095.3778 0169650 175.3354 185.0172 14.15458110332795
